INTELSAT 902 (IS-902)   
1 26900U 01039A   26156.19682155 -.00000272  00000+0  00000+0 0  9997
2 26900   6.0882  71.9274 0004263   0.2969 202.1539  1.00271322 90575
INTELSAT 904 (IS-904)   
1 27380U 02007A   26156.25109469 -.00000215  00000+0  00000+0 0  9992
2 27380   6.8900  69.3272 0007230 359.5843 243.6787  1.00270624 51648
DIRECTV 5 (TEMPO 1)     
1 27426U 02023A   26156.57802494 -.00000045  00000+0  00000+0 0  9995
2 27426   4.8477  75.4544 0003501   6.7085 269.8335  1.00271826 88006
INTELSAT 905 (IS-905)   
1 27438U 02027A   26156.47267141  .00000105  00000+0  00000+0 0  9991
2 27438   6.7238  69.9406 0004198  12.6738 204.2394  1.00272550 51243
GALAXY 3C (G-3C)        
1 27445U 02030A   26156.57255647 -.00000140  00000+0  00000+0 0  9992
2 27445   3.7003  78.1318 0001932  29.0312 258.1111  1.00271969 46371
INTELSAT 906 (IS-906)   
1 27513U 02041A   26155.95650110  .00000024  00000+0  00000+0 0  9995
2 27513   5.7729  73.0696 0004674 356.6746 232.1342  1.00270467 86906
GALAXY 13 (HORIZONS-1)  
1 27954U 03044A   26156.67606813  .00000145  00000+0  00000+0 0  9993
2 27954   1.3905  83.9963 0002073 343.9211 279.5509  1.00272045 46457
INTELSAT 10-02          
1 28358U 04022A   26156.54454206  .00000001  00000+0  00000+0 0  9993
2 28358   0.0141 333.7612 0000054  50.4737  64.7707  1.00269680 80443
DIRECTV 8               
1 28659U 05019A   26156.61088911  .00000000  00000+0  00000+0 0  9997
2 28659   0.0174 343.5820 0003100  95.3579 275.9714  1.00269684 76959
GALAXY 28 (G-28)        
1 28702U 05022A   26156.70039859 -.00000188  00000+0  00000+0 0  9995
2 28702   3.2701  79.0692 0002745 354.4738  45.6204  1.00270972 51868
GALAXY 16 (G-16)        
1 29236U 06023A   26156.61487580 -.00000115  00000+0  00000+0 0  9998
2 29236   0.0109 277.2921 0002849 155.9512 303.1585  1.00272565 72850
DIRECTV 9S              
1 29494U 06043A   26156.68568817 -.00000101  00000+0  00000+0 0  9991
2 29494   2.3905  81.0400 0005171   4.4155 314.3232  1.00271918 51266
GALAXY 17 (G-17)        
1 31307U 07016B   26156.54638637 -.00000194  00000+0  00000+0 0  9993
2 31307   2.9422  80.0469 0004948  12.2302 273.4062  1.00272836 69689
INTELSAT 11 (IS-11)     
1 32253U 07044B   26156.66939475 -.00000166  00000+0  00000+0 0  9991
2 32253   3.5350  78.8086 0001716  76.7099 155.9709  0.99053683 68332
HORIZONS-2              
1 32388U 07063B   26156.52486153 -.00000241  00000+0  00000+0 0  9990
2 32388   2.5715  80.7687 0004175 352.6871 295.6752  1.00273327 67690
DIRECTV 11              
1 32729U 08013A   26156.54361301 -.00000113  00000+0  00000+0 0  9992
2 32729   0.0073 240.3517 0000478 164.9225 305.2261  1.00272511 45473
GALAXY 18 (G-18)        
1 32951U 08024A   26156.68144148  .00000038  00000+0  00000+0 0  9999
2 32951   0.0152  49.1250 0003287  35.9341 291.3629  1.00271843 45733
INTELSAT 25 (IS-25)     
1 33153U 08034A   26156.63540626 -.00000187  00000+0  00000+0 0  9997
2 33153   2.6783  80.4476 0001747  15.6696 199.9005  0.99015529 65570
GALAXY 19 (G-19)        
1 33376U 08045A   26156.61522247 -.00000126  00000+0  00000+0 0  9996
2 33376   0.0134  29.8807 0003471  61.0408 287.6009  1.00270533 64788
FM-5                    
1 35493U 09034A   26156.61747581 -.00000188  00000+0  00000+0 0  9995
2 35493   0.0142 294.6849 0000536  28.5009  66.9947  1.00271280 46522
INTELSAT 14 (IS-14)     
1 36097U 09064A   26156.41168942 -.00000261  00000+0  00000+0 0  9997
2 36097   0.0128 315.6608 0002902 133.3187 268.0859  1.00272433 60484
INTELSAT 15 (IS-15)     
1 36106U 09067A   26156.72265464 -.00000173  00000+0  00000+0 0  9994
2 36106   0.0148 323.4032 0002427 113.2547 162.8014  1.00272339 41112
DIRECTV 12              
1 36131U 09075A   26156.61418247 -.00000091  00000+0  00000+0 0  9997
2 36131   0.0383 147.5473 0000449 268.6316 316.2567  1.00272616 46432
INTELSAT 16 (IS-16)     
1 36397U 10006A   26156.54811970 -.00000232  00000+0  00000+0 0  9996
2 36397   0.0164  33.8635 0002263  52.2579 289.0004  1.00271795 59539
XM-5                    
1 37185U 10053A   26156.48516847 -.00000011  00000+0  00000+0 0  9997
2 37185   0.0629 273.5997 0002892 277.7709 122.0178  1.00271700 57365
INTELSAT 17 (IS-17)     
1 37238U 10065B   26156.74115354  .00000011  00000+0  00000+0 0  9995
2 37238   0.0060 297.2794 0002411 142.4339 147.2614  1.00272015 53130
INTELSAT 28 (IS-28)     
1 37392U 11016A   26156.69953191 -.00000212  00000+0  00000+0 0  9990
2 37392   1.7759  82.7642 0004023 352.0351  39.4779  1.00269765 53173
INTELSAT 18 (IS-18)     
1 37834U 11056A   26156.65745044  .00000065  00000+0  00000+0 0  9992
2 37834   0.0146 304.4999 0002236 142.8086 223.4623  1.00271846 53692
INTELSAT 22 (IS-22)     
1 38098U 12011A   26156.77714323 -.00000046  00000+0  00000+0 0  9996
2 38098   0.0141  48.0192 0001604  14.9126 183.1327  1.00273213  7072
INTELSAT 19 (IS-19)     
1 38356U 12030A   26156.66740139 -.00000044  00000+0  00000+0 0  9994
2 38356   0.0178 352.7304 0003184  89.2278 218.4077  1.00271529 50336
INTELSAT 20 (IS-20)     
1 38740U 12043A   26156.43423860 -.00000012  00000+0  00000+0 0  9994
2 38740   0.0114  84.0860 0001549  92.0204 302.5840  1.00270544 50631
